{
"type": "FeatureCollection",
"name": "elevated_and_underground",
"crs": { "type": "name", "properties": { "name": "urn:ogc:def:crs:OGC:1.3:CRS84" } },
"features": [
{ "type": "Feature", "properties": { "osm_way_id": "40696221", "osm_version": "28", "osm_timestamp": "2026-04-02T13:19:49Z", "node_refs": "1613147978,11964440731,1723840726,1723812913,2472135139", "node_count": 5, "start_node": "1613147978", "end_node": "2472135139", "is_link": false, "is_bridge": true, "is_tunnel": false, "layer_raw": 1.0, "layer_effective": 1, "lanes_parsed": 3.0, "lanes_forward_parsed": null, "lanes_backward_parsed": null, "maxspeed_kmh": 40.0, "maxspeed_status": "parsed_kmh", "oneway_normalised": true, "oneway_basis": "tag:yes", "highway": "trunk", "name": "Silk Board Flyover", "name:en": null, "name:kn": "ಹೊಸೂರು ರಸ್ತೆ", "ref": null, "int_ref": "AH43", "oneway": "yes", "oneway:bicycle": null, "junction": null, "lanes": "3", "lanes:forward": null, "lanes:backward": null, "lanes:both_ways": null, "turn:lanes": null, "turn:lanes:forward": null, "turn:lanes:backward": null, "maxspeed": "40", "maxspeed:type": null, "maxspeed:forward": null, "maxspeed:backward": null, "bridge": "yes", "bridge:structure": null, "tunnel": null, "layer": "1", "level": null, "service": null, "access": null, "motor_vehicle": null, "motorcar": null, "psv": null, "bus": null, "hgv": null, "destination": null, "destination:ref": null, "surface": "asphalt", "width": null, "smoothness": null, "toll": null, "area": null, "covered": null, "length_m": 454.478 }, "geometry": { "type": "LineString", "coordinates": [ [ 77.6219355, 12.9186638 ], [ 77.6219816, 12.918593 ], [ 77.6223393, 12.9180437 ], [ 77.6228925, 12.9171404 ], [ 77.6240446, 12.9151188 ] ] } },
{ "type": "Feature", "properties": { "osm_way_id": "40696222", "osm_version": "26", "osm_timestamp": "2026-04-02T13:19:49Z", "node_refs": "494271069,11964440729,1723813002,2971089259,1723812971,1613147976", "node_count": 6, "start_node": "494271069", "end_node": "1613147976", "is_link": false, "is_bridge": true, "is_tunnel": false, "layer_raw": 1.0, "layer_effective": 1, "lanes_parsed": 3.0, "lanes_forward_parsed": null, "lanes_backward_parsed": null, "maxspeed_kmh": 60.0, "maxspeed_status": "parsed_kmh", "oneway_normalised": true, "oneway_basis": "tag:yes", "highway": "trunk", "name": "Silk Board Flyover", "name:en": null, "name:kn": "ಹೊಸೂರು ರಸ್ತೆ", "ref": null, "int_ref": "AH43", "oneway": "yes", "oneway:bicycle": null, "junction": null, "lanes": "3", "lanes:forward": null, "lanes:backward": null, "lanes:both_ways": null, "turn:lanes": null, "turn:lanes:forward": null, "turn:lanes:backward": null, "maxspeed": "60", "maxspeed:type": null, "maxspeed:forward": null, "maxspeed:backward": null, "bridge": "yes", "bridge:structure": null, "tunnel": null, "layer": "1", "level": null, "service": null, "access": null, "motor_vehicle": null, "motorcar": null, "psv": null, "bus": null, "hgv": null, "destination": null, "destination:ref": null, "surface": "asphalt", "width": null, "smoothness": null, "toll": null, "area": null, "covered": null, "length_m": 453.646 }, "geometry": { "type": "LineString", "coordinates": [ [ 77.6239418, 12.9150658 ], [ 77.6233472, 12.9161431 ], [ 77.6227896, 12.9171082 ], [ 77.6227353, 12.9171967 ], [ 77.6224757, 12.91762 ], [ 77.6218568, 12.918616 ] ] } },
{ "type": "Feature", "properties": { "osm_way_id": "97187758", "osm_version": "9", "osm_timestamp": "2026-07-06T11:22:04Z", "node_refs": "13992233665,11893491717,11893491718", "node_count": 3, "start_node": "13992233665", "end_node": "11893491718", "is_link": false, "is_bridge": true, "is_tunnel": false, "layer_raw": 1.0, "layer_effective": 1, "lanes_parsed": null, "lanes_forward_parsed": null, "lanes_backward_parsed": null, "maxspeed_kmh": null, "maxspeed_status": "absent", "oneway_normalised": false, "oneway_basis": "absent:assumed_bidirectional", "highway": "residential", "name": null, "name:en": null, "name:kn": null, "ref": null, "int_ref": null, "oneway": null, "oneway:bicycle": null, "junction": null, "lanes": null, "lanes:forward": null, "lanes:backward": null, "lanes:both_ways": null, "turn:lanes": null, "turn:lanes:forward": null, "turn:lanes:backward": null, "maxspeed": null, "maxspeed:type": null, "maxspeed:forward": null, "maxspeed:backward": null, "bridge": "yes", "bridge:structure": null, "tunnel": null, "layer": "1", "level": null, "service": null, "access": null, "motor_vehicle": null, "motorcar": null, "psv": null, "bus": null, "hgv": null, "destination": null, "destination:ref": null, "surface": null, "width": null, "smoothness": null, "toll": null, "area": null, "covered": null, "length_m": 11.765 }, "geometry": { "type": "LineString", "coordinates": [ [ 77.6292066, 12.9165511 ], [ 77.6292027, 12.9164913 ], [ 77.6292004, 12.916445 ] ] } },
{ "type": "Feature", "properties": { "osm_way_id": "148210030", "osm_version": "19", "osm_timestamp": "2024-02-19T04:33:42Z", "node_refs": "1613146083,1613146081", "node_count": 2, "start_node": "1613146083", "end_node": "1613146081", "is_link": false, "is_bridge": false, "is_tunnel": true, "layer_raw": -1.0, "layer_effective": -1, "lanes_parsed": 2.0, "lanes_forward_parsed": null, "lanes_backward_parsed": null, "maxspeed_kmh": 60.0, "maxspeed_status": "parsed_kmh", "oneway_normalised": true, "oneway_basis": "tag:yes", "highway": "primary", "name": "Madiwala Underpass", "name:en": null, "name:kn": "ಹೊಸೂರು ರಸ್ತೆ", "ref": null, "int_ref": "AH43", "oneway": "yes", "oneway:bicycle": null, "junction": null, "lanes": "2", "lanes:forward": null, "lanes:backward": null, "lanes:both_ways": null, "turn:lanes": null, "turn:lanes:forward": null, "turn:lanes:backward": null, "maxspeed": "60", "maxspeed:type": null, "maxspeed:forward": null, "maxspeed:backward": null, "bridge": null, "bridge:structure": null, "tunnel": "yes", "layer": "-1", "level": null, "service": null, "access": null, "motor_vehicle": null, "motorcar": null, "psv": null, "bus": null, "hgv": null, "destination": null, "destination:ref": null, "surface": "concrete", "width": null, "smoothness": "good", "toll": null, "area": null, "covered": null, "length_m": 36.597 }, "geometry": { "type": "LineString", "coordinates": [ [ 77.6180631, 12.9247467 ], [ 77.6182327, 12.924461 ] ] } },
{ "type": "Feature", "properties": { "osm_way_id": "239438609", "osm_version": "13", "osm_timestamp": "2024-02-19T04:33:42Z", "node_refs": "1613146079,1613146082", "node_count": 2, "start_node": "1613146079", "end_node": "1613146082", "is_link": false, "is_bridge": false, "is_tunnel": true, "layer_raw": -1.0, "layer_effective": -1, "lanes_parsed": 2.0, "lanes_forward_parsed": null, "lanes_backward_parsed": null, "maxspeed_kmh": 60.0, "maxspeed_status": "parsed_kmh", "oneway_normalised": true, "oneway_basis": "tag:yes", "highway": "primary", "name": "Madiwala Underpass", "name:en": null, "name:kn": "ಹೊಸೂರು ರಸ್ತೆ", "ref": null, "int_ref": "AH43", "oneway": "yes", "oneway:bicycle": null, "junction": null, "lanes": "2", "lanes:forward": null, "lanes:backward": null, "lanes:both_ways": null, "turn:lanes": null, "turn:lanes:forward": null, "turn:lanes:backward": null, "maxspeed": "60", "maxspeed:type": null, "maxspeed:forward": null, "maxspeed:backward": null, "bridge": null, "bridge:structure": null, "tunnel": "yes", "layer": "-1", "level": null, "service": null, "access": null, "motor_vehicle": null, "motorcar": null, "psv": null, "bus": null, "hgv": null, "destination": null, "destination:ref": null, "surface": "concrete", "width": null, "smoothness": "good", "toll": null, "area": null, "covered": null, "length_m": 38.222 }, "geometry": { "type": "LineString", "coordinates": [ [ 77.6181717, 12.9244133 ], [ 77.6179908, 12.9247095 ] ] } },
{ "type": "Feature", "properties": { "osm_way_id": "243554073", "osm_version": "6", "osm_timestamp": "2023-11-15T04:11:39Z", "node_refs": "2509428537,2509428540", "node_count": 2, "start_node": "2509428537", "end_node": "2509428540", "is_link": false, "is_bridge": true, "is_tunnel": false, "layer_raw": null, "layer_effective": 0, "lanes_parsed": 2.0, "lanes_forward_parsed": null, "lanes_backward_parsed": null, "maxspeed_kmh": null, "maxspeed_status": "absent", "oneway_normalised": false, "oneway_basis": "absent:assumed_bidirectional", "highway": "tertiary", "name": null, "name:en": null, "name:kn": null, "ref": null, "int_ref": null, "oneway": null, "oneway:bicycle": null, "junction": null, "lanes": "2", "lanes:forward": null, "lanes:backward": null, "lanes:both_ways": null, "turn:lanes": null, "turn:lanes:forward": null, "turn:lanes:backward": null, "maxspeed": null, "maxspeed:type": null, "maxspeed:forward": null, "maxspeed:backward": null, "bridge": "yes", "bridge:structure": null, "tunnel": null, "layer": null, "level": null, "service": null, "access": null, "motor_vehicle": null, "motorcar": null, "psv": null, "bus": null, "hgv": null, "destination": null, "destination:ref": null, "surface": "asphalt", "width": null, "smoothness": null, "toll": null, "area": null, "covered": null, "length_m": 22.792 }, "geometry": { "type": "LineString", "coordinates": [ [ 77.6182909, 12.9210474 ], [ 77.6184385, 12.9211938 ] ] } },
{ "type": "Feature", "properties": { "osm_way_id": "256258847", "osm_version": "2", "osm_timestamp": "2023-11-28T07:02:44Z", "node_refs": "2619300320,2619300315", "node_count": 2, "start_node": "2619300320", "end_node": "2619300315", "is_link": false, "is_bridge": true, "is_tunnel": false, "layer_raw": 1.0, "layer_effective": 1, "lanes_parsed": null, "lanes_forward_parsed": null, "lanes_backward_parsed": null, "maxspeed_kmh": null, "maxspeed_status": "absent", "oneway_normalised": false, "oneway_basis": "absent:assumed_bidirectional", "highway": "tertiary", "name": null, "name:en": null, "name:kn": null, "ref": null, "int_ref": null, "oneway": null, "oneway:bicycle": null, "junction": null, "lanes": null, "lanes:forward": null, "lanes:backward": null, "lanes:both_ways": null, "turn:lanes": null, "turn:lanes:forward": null, "turn:lanes:backward": null, "maxspeed": null, "maxspeed:type": null, "maxspeed:forward": null, "maxspeed:backward": null, "bridge": "yes", "bridge:structure": null, "tunnel": null, "layer": "1", "level": null, "service": null, "access": null, "motor_vehicle": null, "motorcar": null, "psv": null, "bus": null, "hgv": null, "destination": null, "destination:ref": null, "surface": null, "width": null, "smoothness": null, "toll": null, "area": null, "covered": null, "length_m": 8.791 }, "geometry": { "type": "LineString", "coordinates": [ [ 77.6218722, 12.9181732 ], [ 77.62194, 12.9182166 ] ] } },
{ "type": "Feature", "properties": { "osm_way_id": "370328587", "osm_version": "6", "osm_timestamp": "2024-08-23T07:17:58Z", "node_refs": "1123386064,2619304351", "node_count": 2, "start_node": "1123386064", "end_node": "2619304351", "is_link": false, "is_bridge": true, "is_tunnel": false, "layer_raw": 1.0, "layer_effective": 1, "lanes_parsed": 2.0, "lanes_forward_parsed": null, "lanes_backward_parsed": null, "maxspeed_kmh": null, "maxspeed_status": "absent", "oneway_normalised": true, "oneway_basis": "tag:yes", "highway": "tertiary", "name": null, "name:en": null, "name:kn": null, "ref": null, "int_ref": null, "oneway": "yes", "oneway:bicycle": null, "junction": null, "lanes": "2", "lanes:forward": null, "lanes:backward": null, "lanes:both_ways": null, "turn:lanes": null, "turn:lanes:forward": null, "turn:lanes:backward": null, "maxspeed": null, "maxspeed:type": null, "maxspeed:forward": null, "maxspeed:backward": null, "bridge": "yes", "bridge:structure": null, "tunnel": null, "layer": "1", "level": null, "service": null, "access": null, "motor_vehicle": null, "motorcar": null, "psv": null, "bus": null, "hgv": null, "destination": null, "destination:ref": null, "surface": "asphalt", "width": null, "smoothness": null, "toll": null, "area": null, "covered": null, "length_m": 17.486 }, "geometry": { "type": "LineString", "coordinates": [ [ 77.6236868, 12.9172851 ], [ 77.6236144, 12.917144 ] ] } },
{ "type": "Feature", "properties": { "osm_way_id": "519734960", "osm_version": "12", "osm_timestamp": "2025-08-17T05:23:49Z", "node_refs": "12040966310,5067333246,5067333245,5067333244,5067333243,5067333242,5067333241,5067333240,11726543776,11726543777,5067333239,13075406632,5067333236", "node_count": 13, "start_node": "12040966310", "end_node": "5067333236", "is_link": false, "is_bridge": true, "is_tunnel": false, "layer_raw": 1.0, "layer_effective": 1, "lanes_parsed": 4.0, "lanes_forward_parsed": null, "lanes_backward_parsed": null, "maxspeed_kmh": 40.0, "maxspeed_status": "parsed_kmh", "oneway_normalised": true, "oneway_basis": "tag:yes", "highway": "primary", "name": "Silkboard Double Decker Flyover", "name:en": null, "name:kn": null, "ref": null, "int_ref": null, "oneway": "yes", "oneway:bicycle": null, "junction": null, "lanes": "4", "lanes:forward": null, "lanes:backward": null, "lanes:both_ways": null, "turn:lanes": null, "turn:lanes:forward": null, "turn:lanes:backward": null, "maxspeed": "40", "maxspeed:type": null, "maxspeed:forward": null, "maxspeed:backward": null, "bridge": "yes", "bridge:structure": null, "tunnel": null, "layer": "1", "level": null, "service": null, "access": null, "motor_vehicle": null, "motorcar": null, "psv": null, "bus": null, "hgv": null, "destination": null, "destination:ref": null, "surface": "asphalt", "width": null, "smoothness": "excellent", "toll": null, "area": null, "covered": null, "length_m": 216.953 }, "geometry": { "type": "LineString", "coordinates": [ [ 77.6214199, 12.918769 ], [ 77.6214463, 12.9188326 ], [ 77.6215249, 12.9189401 ], [ 77.6216117, 12.919024 ], [ 77.6216997, 12.9190728 ], [ 77.6218761, 12.9191001 ], [ 77.6220452, 12.9190668 ], [ 77.62218, 12.9190028 ], [ 77.6222926, 12.9188884 ], [ 77.622398, 12.9187445 ], [ 77.6225295, 12.9185042 ], [ 77.6226139, 12.9183288 ], [ 77.6227173, 12.9181046 ] ] } },
{ "type": "Feature", "properties": { "osm_way_id": "750614311", "osm_version": "6", "osm_timestamp": "2025-04-28T12:53:16Z", "node_refs": "12142363024,12142363023", "node_count": 2, "start_node": "12142363024", "end_node": "12142363023", "is_link": false, "is_bridge": true, "is_tunnel": false, "layer_raw": 1.0, "layer_effective": 1, "lanes_parsed": null, "lanes_forward_parsed": null, "lanes_backward_parsed": null, "maxspeed_kmh": null, "maxspeed_status": "absent", "oneway_normalised": false, "oneway_basis": "absent:assumed_bidirectional", "highway": "service", "name": null, "name:en": null, "name:kn": null, "ref": null, "int_ref": null, "oneway": null, "oneway:bicycle": null, "junction": null, "lanes": null, "lanes:forward": null, "lanes:backward": null, "lanes:both_ways": null, "turn:lanes": null, "turn:lanes:forward": null, "turn:lanes:backward": null, "maxspeed": null, "maxspeed:type": null, "maxspeed:forward": null, "maxspeed:backward": null, "bridge": "yes", "bridge:structure": null, "tunnel": null, "layer": "1", "level": null, "service": null, "access": null, "motor_vehicle": null, "motorcar": null, "psv": null, "bus": null, "hgv": null, "destination": null, "destination:ref": null, "surface": null, "width": null, "smoothness": null, "toll": null, "area": null, "covered": null, "length_m": 4.749 }, "geometry": { "type": "LineString", "coordinates": [ [ 77.6221671, 12.9177577 ], [ 77.6222044, 12.9177801 ] ] } },
{ "type": "Feature", "properties": { "osm_way_id": "750614312", "osm_version": "5", "osm_timestamp": "2024-10-18T09:09:53Z", "node_refs": "12142363022,12142363021", "node_count": 2, "start_node": "12142363022", "end_node": "12142363021", "is_link": false, "is_bridge": true, "is_tunnel": false, "layer_raw": 1.0, "layer_effective": 1, "lanes_parsed": null, "lanes_forward_parsed": null, "lanes_backward_parsed": null, "maxspeed_kmh": null, "maxspeed_status": "absent", "oneway_normalised": false, "oneway_basis": "absent:assumed_bidirectional", "highway": "service", "name": null, "name:en": null, "name:kn": null, "ref": null, "int_ref": null, "oneway": null, "oneway:bicycle": null, "junction": null, "lanes": null, "lanes:forward": null, "lanes:backward": null, "lanes:both_ways": null, "turn:lanes": null, "turn:lanes:forward": null, "turn:lanes:backward": null, "maxspeed": null, "maxspeed:type": null, "maxspeed:forward": null, "maxspeed:backward": null, "bridge": "yes", "bridge:structure": null, "tunnel": null, "layer": "1", "level": null, "service": null, "access": null, "motor_vehicle": "no", "motorcar": null, "psv": null, "bus": null, "hgv": null, "destination": null, "destination:ref": null, "surface": null, "width": null, "smoothness": null, "toll": null, "area": null, "covered": null, "length_m": 6.501 }, "geometry": { "type": "LineString", "coordinates": [ [ 77.6221927, 12.9176872 ], [ 77.6222431, 12.9177189 ] ] } },
{ "type": "Feature", "properties": { "osm_way_id": "799578797", "osm_version": "9", "osm_timestamp": "2025-11-07T13:54:18Z", "node_refs": "12635372070,11374929996", "node_count": 2, "start_node": "12635372070", "end_node": "11374929996", "is_link": false, "is_bridge": true, "is_tunnel": false, "layer_raw": 1.0, "layer_effective": 1, "lanes_parsed": null, "lanes_forward_parsed": null, "lanes_backward_parsed": null, "maxspeed_kmh": null, "maxspeed_status": "absent", "oneway_normalised": true, "oneway_basis": "tag:yes", "highway": "tertiary", "name": "1 A Main Road", "name:en": null, "name:kn": "೧ನೇ ಏ ಮುಖ್ಯ ರಸ್ತೆ", "ref": null, "int_ref": null, "oneway": "yes", "oneway:bicycle": null, "junction": null, "lanes": null, "lanes:forward": null, "lanes:backward": null, "lanes:both_ways": null, "turn:lanes": null, "turn:lanes:forward": null, "turn:lanes:backward": null, "maxspeed": null, "maxspeed:type": null, "maxspeed:forward": null, "maxspeed:backward": null, "bridge": "yes", "bridge:structure": null, "tunnel": null, "layer": "1", "level": null, "service": null, "access": null, "motor_vehicle": null, "motorcar": null, "psv": null, "bus": null, "hgv": null, "destination": null, "destination:ref": null, "surface": "asphalt", "width": null, "smoothness": null, "toll": null, "area": null, "covered": null, "length_m": 14.606 }, "geometry": { "type": "LineString", "coordinates": [ [ 77.6249322, 12.9173444 ], [ 77.6248704, 12.9174616 ] ] } },
{ "type": "Feature", "properties": { "osm_way_id": "886153772", "osm_version": "14", "osm_timestamp": "2025-12-16T01:01:22Z", "node_refs": "13379577436,8239947023,8239947022,8239947085,8239947021,8239947020,8239947019,8239947088,8239947018,8239947017,8239896816,8239896815,8239947094,8239896814,8239896813,8239896812,8239896811,8239896810,8239896808,8239896807,12040966323", "node_count": 21, "start_node": "13379577436", "end_node": "12040966323", "is_link": false, "is_bridge": true, "is_tunnel": false, "layer_raw": 1.0, "layer_effective": 1, "lanes_parsed": 2.0, "lanes_forward_parsed": null, "lanes_backward_parsed": null, "maxspeed_kmh": 40.0, "maxspeed_status": "parsed_kmh", "oneway_normalised": true, "oneway_basis": "tag:yes", "highway": "primary", "name": "Ragigudda-Silk Board Integrated Flyover", "name:en": null, "name:kn": null, "ref": null, "int_ref": null, "oneway": "yes", "oneway:bicycle": null, "junction": null, "lanes": "2", "lanes:forward": null, "lanes:backward": null, "lanes:both_ways": null, "turn:lanes": null, "turn:lanes:forward": null, "turn:lanes:backward": null, "maxspeed": "40", "maxspeed:type": null, "maxspeed:forward": null, "maxspeed:backward": null, "bridge": "viaduct", "bridge:structure": null, "tunnel": null, "layer": "1", "level": null, "service": null, "access": null, "motor_vehicle": null, "motorcar": null, "psv": null, "bus": null, "hgv": null, "destination": null, "destination:ref": null, "surface": "asphalt", "width": null, "smoothness": "excellent", "toll": null, "area": null, "covered": null, "length_m": 2074.129 }, "geometry": { "type": "LineString", "coordinates": [ [ 77.6009818, 12.9167707 ], [ 77.6018886, 12.9167565 ], [ 77.6046272, 12.9167301 ], [ 77.6055093, 12.9166985 ], [ 77.6068966, 12.916649 ], [ 77.608769, 12.9166269 ], [ 77.6106789, 12.9165901 ], [ 77.6118255, 12.9165832 ], [ 77.6139489, 12.9165024 ], [ 77.6142033, 12.9164926 ], [ 77.6150652, 12.9164387 ], [ 77.6155799, 12.9164012 ], [ 77.6161169, 12.9163313 ], [ 77.616666, 12.9162711 ], [ 77.6171045, 12.9162816 ], [ 77.6175646, 12.9163121 ], [ 77.6189793, 12.9163339 ], [ 77.6193191, 12.9163443 ], [ 77.6195336, 12.9163764 ], [ 77.6197489, 12.9163982 ], [ 77.6200533, 12.9164729 ] ] } },
{ "type": "Feature", "properties": { "osm_way_id": "886153773", "osm_version": "16", "osm_timestamp": "2026-04-23T09:16:57Z", "node_refs": "12969313169,8239947036,8239947037,8239947038,8239947039,8239947040,8239947041,8239947042,8239947043,8239947091,8239947044,8239947087,8239947045,8239947084,8239947046,8239947047,13379577435", "node_count": 17, "start_node": "12969313169", "end_node": "13379577435", "is_link": false, "is_bridge": true, "is_tunnel": false, "layer_raw": 1.0, "layer_effective": 1, "lanes_parsed": 2.0, "lanes_forward_parsed": null, "lanes_backward_parsed": null, "maxspeed_kmh": null, "maxspeed_status": "absent", "oneway_normalised": true, "oneway_basis": "tag:yes", "highway": "primary", "name": null, "name:en": null, "name:kn": null, "ref": null, "int_ref": null, "oneway": "yes", "oneway:bicycle": null, "junction": null, "lanes": "2", "lanes:forward": null, "lanes:backward": null, "lanes:both_ways": null, "turn:lanes": null, "turn:lanes:forward": null, "turn:lanes:backward": null, "maxspeed": null, "maxspeed:type": null, "maxspeed:forward": null, "maxspeed:backward": null, "bridge": "viaduct", "bridge:structure": null, "tunnel": null, "layer": "1", "level": null, "service": null, "access": null, "motor_vehicle": null, "motorcar": null, "psv": null, "bus": null, "hgv": null, "destination": null, "destination:ref": null, "surface": "asphalt", "width": null, "smoothness": "excellent", "toll": null, "area": null, "covered": null, "length_m": 1944.598 }, "geometry": { "type": "LineString", "coordinates": [ [ 77.6188701, 12.9162035 ], [ 77.6183345, 12.9162143 ], [ 77.6175812, 12.9162126 ], [ 77.6170888, 12.9161807 ], [ 77.6166649, 12.9161772 ], [ 77.6155396, 12.9163031 ], [ 77.615037, 12.9163545 ], [ 77.6141976, 12.9164078 ], [ 77.6139087, 12.9164169 ], [ 77.6118265, 12.9164619 ], [ 77.6106846, 12.9164666 ], [ 77.6087578, 12.9165118 ], [ 77.6068882, 12.9165563 ], [ 77.6055308, 12.9166037 ], [ 77.6046139, 12.9166282 ], [ 77.6018855, 12.9166567 ], [ 77.6009778, 12.9166696 ] ] } },
{ "type": "Feature", "properties": { "osm_way_id": "1254771465", "osm_version": "6", "osm_timestamp": "2026-06-22T16:25:40Z", "node_refs": "12969313170,12969313173,12969313174,12969313175,12969313176,12969313177,12969313178,12969313179,11664293081,11664293083,11664293084,11664293085,11664293086,11664293087,8239947031", "node_count": 15, "start_node": "12969313170", "end_node": "8239947031", "is_link": true, "is_bridge": true, "is_tunnel": false, "layer_raw": 2.0, "layer_effective": 2, "lanes_parsed": 2.0, "lanes_forward_parsed": null, "lanes_backward_parsed": null, "maxspeed_kmh": 40.0, "maxspeed_status": "parsed_kmh", "oneway_normalised": true, "oneway_basis": "tag:yes", "highway": "primary_link", "name": "Silk Board Interchange", "name:en": null, "name:kn": null, "ref": null, "int_ref": null, "oneway": "yes", "oneway:bicycle": null, "junction": null, "lanes": "2", "lanes:forward": null, "lanes:backward": null, "lanes:both_ways": null, "turn:lanes": null, "turn:lanes:forward": null, "turn:lanes:backward": null, "maxspeed": "40", "maxspeed:type": "sign", "maxspeed:forward": null, "maxspeed:backward": null, "bridge": "yes", "bridge:structure": null, "tunnel": null, "layer": "2", "level": null, "service": null, "access": null, "motor_vehicle": null, "motorcar": null, "psv": null, "bus": null, "hgv": null, "destination": null, "destination:ref": null, "surface": "asphalt", "width": null, "smoothness": null, "toll": null, "area": null, "covered": null, "length_m": 620.684 }, "geometry": { "type": "LineString", "coordinates": [ [ 77.626947, 12.917172 ], [ 77.6264843, 12.9173223 ], [ 77.6260552, 12.9174399 ], [ 77.6258647, 12.9174909 ], [ 77.6256676, 12.9175341 ], [ 77.6254316, 12.917555 ], [ 77.6251942, 12.917568 ], [ 77.6249565, 12.917569 ], [ 77.6246532, 12.917538 ], [ 77.6233596, 12.9172672 ], [ 77.6228183, 12.9169125 ], [ 77.6224551, 12.9168385 ], [ 77.6221146, 12.9167706 ], [ 77.6218727, 12.9166989 ], [ 77.6214669, 12.9165871 ] ] } },
{ "type": "Feature", "properties": { "osm_way_id": "1299917512", "osm_version": "5", "osm_timestamp": "2024-09-10T06:47:37Z", "node_refs": "5067333236,5067333237,12040966305,11664293092,11664293093,11664293094,12057714071", "node_count": 7, "start_node": "5067333236", "end_node": "12057714071", "is_link": false, "is_bridge": true, "is_tunnel": false, "layer_raw": 1.0, "layer_effective": 1, "lanes_parsed": 2.0, "lanes_forward_parsed": null, "lanes_backward_parsed": null, "maxspeed_kmh": 40.0, "maxspeed_status": "parsed_kmh", "oneway_normalised": true, "oneway_basis": "tag:yes", "highway": "primary", "name": "Silkboard Double Decker Flyover", "name:en": null, "name:kn": null, "ref": null, "int_ref": null, "oneway": "yes", "oneway:bicycle": null, "junction": null, "lanes": "2", "lanes:forward": null, "lanes:backward": null, "lanes:both_ways": null, "turn:lanes": null, "turn:lanes:forward": null, "turn:lanes:backward": null, "maxspeed": "40", "maxspeed:type": null, "maxspeed:forward": null, "maxspeed:backward": null, "bridge": "yes", "bridge:structure": null, "tunnel": null, "layer": "1", "level": null, "service": null, "access": null, "motor_vehicle": null, "motorcar": null, "psv": null, "bus": null, "hgv": null, "destination": null, "destination:ref": null, "surface": "asphalt", "width": null, "smoothness": "excellent", "toll": null, "area": null, "covered": null, "length_m": 391.357 }, "geometry": { "type": "LineString", "coordinates": [ [ 77.6227173, 12.9181046 ], [ 77.6229179, 12.9176988 ], [ 77.6233245, 12.9168819 ], [ 77.6234745, 12.9163879 ], [ 77.6237162, 12.9159263 ], [ 77.6240067, 12.9153976 ], [ 77.6242747, 12.9149255 ] ] } },
{ "type": "Feature", "properties": { "osm_way_id": "1299917514", "osm_version": "7", "osm_timestamp": "2025-12-05T02:54:07Z", "node_refs": "12040966323,13354702089,12040966320,12040966319,12040966317,12040966322,12040966313,12040966321,12040966311,13075406635,12040966309,11726718192,13075406636,12040966310", "node_count": 14, "start_node": "12040966323", "end_node": "12040966310", "is_link": false, "is_bridge": true, "is_tunnel": false, "layer_raw": 1.0, "layer_effective": 1, "lanes_parsed": 2.0, "lanes_forward_parsed": null, "lanes_backward_parsed": null, "maxspeed_kmh": 40.0, "maxspeed_status": "parsed_kmh", "oneway_normalised": true, "oneway_basis": "tag:yes", "highway": "primary", "name": "Ramp A", "name:en": null, "name:kn": null, "ref": null, "int_ref": null, "oneway": "yes", "oneway:bicycle": null, "junction": null, "lanes": "2", "lanes:forward": null, "lanes:backward": null, "lanes:both_ways": null, "turn:lanes": null, "turn:lanes:forward": null, "turn:lanes:backward": null, "maxspeed": "40", "maxspeed:type": null, "maxspeed:forward": null, "maxspeed:backward": null, "bridge": "yes", "bridge:structure": null, "tunnel": null, "layer": "1", "level": null, "service": null, "access": null, "motor_vehicle": null, "motorcar": null, "psv": null, "bus": null, "hgv": null, "destination": null, "destination:ref": null, "surface": "asphalt", "width": null, "smoothness": "excellent", "toll": null, "area": null, "covered": null, "length_m": 312.441 }, "geometry": { "type": "LineString", "coordinates": [ [ 77.6200533, 12.9164729 ], [ 77.6201806, 12.9165054 ], [ 77.6202964, 12.9165539 ], [ 77.620411, 12.9167374 ], [ 77.6204767, 12.9168316 ], [ 77.6206199, 12.9170095 ], [ 77.6208749, 12.9172765 ], [ 77.6211381, 12.9176181 ], [ 77.6212072, 12.9177134 ], [ 77.6213385, 12.9179236 ], [ 77.6214024, 12.9181096 ], [ 77.6214176, 12.918259 ], [ 77.6214203, 12.9185249 ], [ 77.6214199, 12.918769 ] ] } },
{ "type": "Feature", "properties": { "osm_way_id": "1299917517", "osm_version": "9", "osm_timestamp": "2025-08-30T09:09:35Z", "node_refs": "5067333236,5067333235,13075406633,11726543775,5067333234,11726543774,5067333233,11726543772,11726543773,11726543771,5067333232,11726543770,11726543769,12041127735", "node_count": 14, "start_node": "5067333236", "end_node": "12041127735", "is_link": true, "is_bridge": true, "is_tunnel": false, "layer_raw": 1.0, "layer_effective": 1, "lanes_parsed": 2.0, "lanes_forward_parsed": null, "lanes_backward_parsed": null, "maxspeed_kmh": 40.0, "maxspeed_status": "parsed_kmh", "oneway_normalised": true, "oneway_basis": "tag:yes", "highway": "primary_link", "name": "Silkboard Double Decker Flyover", "name:en": null, "name:kn": null, "ref": null, "int_ref": null, "oneway": "yes", "oneway:bicycle": null, "junction": null, "lanes": "2", "lanes:forward": null, "lanes:backward": null, "lanes:both_ways": null, "turn:lanes": null, "turn:lanes:forward": null, "turn:lanes:backward": null, "maxspeed": "40", "maxspeed:type": null, "maxspeed:forward": null, "maxspeed:backward": null, "bridge": "yes", "bridge:structure": null, "tunnel": null, "layer": "1", "level": null, "service": null, "access": null, "motor_vehicle": null, "motorcar": null, "psv": null, "bus": null, "hgv": null, "destination": "HSR;Marathahalli", "destination:ref": null, "surface": "asphalt", "width": null, "smoothness": "excellent", "toll": null, "area": null, "covered": null, "length_m": 344.375 }, "geometry": { "type": "LineString", "coordinates": [ [ 77.6227173, 12.9181046 ], [ 77.6230079, 12.9178623 ], [ 77.6231691, 12.9177667 ], [ 77.6233348, 12.9176909 ], [ 77.6234801, 12.9176674 ], [ 77.6238075, 12.9176687 ], [ 77.6240038, 12.9176961 ], [ 77.6241964, 12.9177295 ], [ 77.624417, 12.9177654 ], [ 77.624649, 12.9177909 ], [ 77.6248781, 12.9178158 ], [ 77.6251117, 12.9178157 ], [ 77.6253276, 12.9178256 ], [ 77.6257399, 12.9178017 ] ] } },
{ "type": "Feature", "properties": { "osm_way_id": "1299932382", "osm_version": "9", "osm_timestamp": "2025-08-30T09:09:35Z", "node_refs": "12041127738,12041127739,12041127740,13075406634,12041127742,12041127743,12041127744,12040966310", "node_count": 8, "start_node": "12041127738", "end_node": "12040966310", "is_link": true, "is_bridge": true, "is_tunnel": false, "layer_raw": 1.0, "layer_effective": 1, "lanes_parsed": 2.0, "lanes_forward_parsed": null, "lanes_backward_parsed": null, "maxspeed_kmh": 40.0, "maxspeed_status": "parsed_kmh", "oneway_normalised": true, "oneway_basis": "tag:yes", "highway": "primary_link", "name": "Silkboard Double Decker Flyover", "name:en": null, "name:kn": null, "ref": null, "int_ref": null, "oneway": "yes", "oneway:bicycle": null, "junction": null, "lanes": "2", "lanes:forward": null, "lanes:backward": null, "lanes:both_ways": null, "turn:lanes": null, "turn:lanes:forward": null, "turn:lanes:backward": null, "maxspeed": "40", "maxspeed:type": null, "maxspeed:forward": null, "maxspeed:backward": null, "bridge": "yes", "bridge:structure": null, "tunnel": null, "layer": "1", "level": null, "service": null, "access": null, "motor_vehicle": null, "motorcar": null, "psv": null, "bus": null, "hgv": null, "destination": "HSR Layout", "destination:ref": null, "surface": "asphalt", "width": null, "smoothness": "excellent", "toll": null, "area": null, "covered": null, "length_m": 228.899 }, "geometry": { "type": "LineString", "coordinates": [ [ 77.620517, 12.916969 ], [ 77.6208343, 12.9173161 ], [ 77.6211423, 12.9177285 ], [ 77.6212648, 12.9179471 ], [ 77.6213258, 12.918119 ], [ 77.6213478, 12.9182643 ], [ 77.6213593, 12.9185225 ], [ 77.6214199, 12.918769 ] ] } },
{ "type": "Feature", "properties": { "osm_way_id": "1301808818", "osm_version": "5", "osm_timestamp": "2025-08-30T09:09:35Z", "node_refs": "12041127735,12969313164,12167530150", "node_count": 3, "start_node": "12041127735", "end_node": "12167530150", "is_link": true, "is_bridge": true, "is_tunnel": false, "layer_raw": 1.0, "layer_effective": 1, "lanes_parsed": 2.0, "lanes_forward_parsed": null, "lanes_backward_parsed": null, "maxspeed_kmh": null, "maxspeed_status": "absent", "oneway_normalised": true, "oneway_basis": "tag:yes", "highway": "primary_link", "name": "Silkboard Double Decker Flyover", "name:en": null, "name:kn": null, "ref": null, "int_ref": null, "oneway": "yes", "oneway:bicycle": null, "junction": null, "lanes": "2", "lanes:forward": null, "lanes:backward": null, "lanes:both_ways": null, "turn:lanes": null, "turn:lanes:forward": null, "turn:lanes:backward": null, "maxspeed": null, "maxspeed:type": null, "maxspeed:forward": null, "maxspeed:backward": null, "bridge": "yes", "bridge:structure": null, "tunnel": null, "layer": "1", "level": null, "service": null, "access": null, "motor_vehicle": null, "motorcar": null, "psv": null, "bus": null, "hgv": null, "destination": null, "destination:ref": null, "surface": "asphalt", "width": null, "smoothness": "excellent", "toll": null, "area": null, "covered": null, "length_m": 88.107 }, "geometry": { "type": "LineString", "coordinates": [ [ 77.6257399, 12.9178017 ], [ 77.6260659, 12.9177301 ], [ 77.6265194, 12.917584 ] ] } },
{ "type": "Feature", "properties": { "osm_way_id": "1314367961", "osm_version": "1", "osm_timestamp": "2024-09-09T13:00:51Z", "node_refs": "12165530404,12165530406", "node_count": 2, "start_node": "12165530404", "end_node": "12165530406", "is_link": false, "is_bridge": false, "is_tunnel": true, "layer_raw": null, "layer_effective": 0, "lanes_parsed": null, "lanes_forward_parsed": null, "lanes_backward_parsed": null, "maxspeed_kmh": null, "maxspeed_status": "absent", "oneway_normalised": false, "oneway_basis": "absent:assumed_bidirectional", "highway": "service", "name": null, "name:en": null, "name:kn": null, "ref": null, "int_ref": null, "oneway": null, "oneway:bicycle": null, "junction": null, "lanes": null, "lanes:forward": null, "lanes:backward": null, "lanes:both_ways": null, "turn:lanes": null, "turn:lanes:forward": null, "turn:lanes:backward": null, "maxspeed": null, "maxspeed:type": null, "maxspeed:forward": null, "maxspeed:backward": null, "bridge": null, "bridge:structure": null, "tunnel": "building_passage", "layer": null, "level": null, "service": null, "access": null, "motor_vehicle": null, "motorcar": null, "psv": null, "bus": null, "hgv": null, "destination": null, "destination:ref": null, "surface": null, "width": null, "smoothness": null, "toll": null, "area": null, "covered": null, "length_m": 14.827 }, "geometry": { "type": "LineString", "coordinates": [ [ 77.6207856, 12.9208466 ], [ 77.6208581, 12.9207331 ] ] } },
{ "type": "Feature", "properties": { "osm_way_id": "1351994264", "osm_version": "3", "osm_timestamp": "2026-04-23T09:16:57Z", "node_refs": "8239947031,12041127736,8239947032,8239947033,12969313169", "node_count": 5, "start_node": "8239947031", "end_node": "12969313169", "is_link": true, "is_bridge": true, "is_tunnel": false, "layer_raw": 1.0, "layer_effective": 1, "lanes_parsed": 2.0, "lanes_forward_parsed": null, "lanes_backward_parsed": null, "maxspeed_kmh": null, "maxspeed_status": "absent", "oneway_normalised": true, "oneway_basis": "tag:yes", "highway": "primary_link", "name": "Ragigudda-Silk Board Integrated Flyover (u/c)", "name:en": null, "name:kn": null, "ref": null, "int_ref": null, "oneway": "yes", "oneway:bicycle": null, "junction": null, "lanes": "2", "lanes:forward": null, "lanes:backward": null, "lanes:both_ways": null, "turn:lanes": null, "turn:lanes:forward": null, "turn:lanes:backward": null, "maxspeed": null, "maxspeed:type": null, "maxspeed:forward": null, "maxspeed:backward": null, "bridge": "viaduct", "bridge:structure": null, "tunnel": null, "layer": "1", "level": null, "service": null, "access": null, "motor_vehicle": null, "motorcar": null, "psv": null, "bus": null, "hgv": null, "destination": null, "destination:ref": null, "surface": "asphalt", "width": null, "smoothness": "excellent", "toll": null, "area": null, "covered": null, "length_m": 289.708 }, "geometry": { "type": "LineString", "coordinates": [ [ 77.6214669, 12.9165871 ], [ 77.6212047, 12.9165005 ], [ 77.6204783, 12.916274 ], [ 77.6200263, 12.9161431 ], [ 77.6188701, 12.9162035 ] ] } },
{ "type": "Feature", "properties": { "osm_way_id": "1422778330", "osm_version": "2", "osm_timestamp": "2026-04-23T09:16:57Z", "node_refs": "12969313169,13075406640,13075406639", "node_count": 3, "start_node": "12969313169", "end_node": "13075406639", "is_link": true, "is_bridge": true, "is_tunnel": false, "layer_raw": 1.0, "layer_effective": 1, "lanes_parsed": 2.0, "lanes_forward_parsed": null, "lanes_backward_parsed": null, "maxspeed_kmh": 40.0, "maxspeed_status": "parsed_kmh", "oneway_normalised": true, "oneway_basis": "tag:yes", "highway": "primary_link", "name": null, "name:en": null, "name:kn": null, "ref": null, "int_ref": null, "oneway": "yes", "oneway:bicycle": null, "junction": null, "lanes": "2", "lanes:forward": null, "lanes:backward": null, "lanes:both_ways": null, "turn:lanes": null, "turn:lanes:forward": null, "turn:lanes:backward": null, "maxspeed": "40", "maxspeed:type": "sign", "maxspeed:forward": null, "maxspeed:backward": null, "bridge": "yes", "bridge:structure": null, "tunnel": null, "layer": "1", "level": null, "service": null, "access": null, "motor_vehicle": null, "motorcar": null, "psv": null, "bus": null, "hgv": null, "destination": null, "destination:ref": null, "surface": "asphalt", "width": null, "smoothness": null, "toll": null, "area": null, "covered": null, "length_m": 91.479 }, "geometry": { "type": "LineString", "coordinates": [ [ 77.6188701, 12.9162035 ], [ 77.6185074, 12.9161458 ], [ 77.6180327, 12.9161288 ] ] } },
{ "type": "Feature", "properties": { "osm_way_id": "1487994632", "osm_version": "1", "osm_timestamp": "2026-03-12T12:04:56Z", "node_refs": "13640942623,13633866218,13633866219,13640942624", "node_count": 4, "start_node": "13640942623", "end_node": "13640942624", "is_link": false, "is_bridge": false, "is_tunnel": true, "layer_raw": null, "layer_effective": 0, "lanes_parsed": null, "lanes_forward_parsed": null, "lanes_backward_parsed": null, "maxspeed_kmh": null, "maxspeed_status": "absent", "oneway_normalised": false, "oneway_basis": "absent:assumed_bidirectional", "highway": "residential", "name": null, "name:en": null, "name:kn": null, "ref": null, "int_ref": null, "oneway": null, "oneway:bicycle": null, "junction": null, "lanes": null, "lanes:forward": null, "lanes:backward": null, "lanes:both_ways": null, "turn:lanes": null, "turn:lanes:forward": null, "turn:lanes:backward": null, "maxspeed": null, "maxspeed:type": null, "maxspeed:forward": null, "maxspeed:backward": null, "bridge": null, "bridge:structure": null, "tunnel": "building_passage", "layer": null, "level": null, "service": null, "access": "private", "motor_vehicle": null, "motorcar": null, "psv": null, "bus": null, "hgv": null, "destination": null, "destination:ref": null, "surface": null, "width": null, "smoothness": null, "toll": null, "area": null, "covered": null, "length_m": 12.727 }, "geometry": { "type": "LineString", "coordinates": [ [ 77.6223326, 12.9103443 ], [ 77.6223676, 12.9103423 ], [ 77.6224106, 12.9103367 ], [ 77.6224485, 12.9103287 ] ] } }
]
}
