{
"type": "FeatureCollection",
"name": "intersections",
"crs": { "type": "name", "properties": { "name": "urn:ogc:def:crs:OGC:1.3:CRS84" } },
"features": [
{ "type": "Feature", "properties": { "intersection_id": "X000", "node_count": 1, "osm_node_ids": "12969313169", "max_major_degree": 3, "signal_node_count": 0, "signal_node_ids": "", "cluster_radius_m": 40.0, "signal_association_radius_m": 60.0, "association_method": "derived:proximity (not asserted by OSM)" }, "geometry": { "type": "Point", "coordinates": [ 77.6188701, 12.9162035 ] } },
{ "type": "Feature", "properties": { "intersection_id": "X001", "node_count": 2, "osm_node_ids": "307407783,494271091", "max_major_degree": 3, "signal_node_count": 0, "signal_node_ids": "", "cluster_radius_m": 40.0, "signal_association_radius_m": 60.0, "association_method": "derived:proximity (not asserted by OSM)" }, "geometry": { "type": "Point", "coordinates": [ 77.620059199941821, 12.916432050040868 ] } },
{ "type": "Feature", "properties": { "intersection_id": "X002", "node_count": 2, "osm_node_ids": "1123386062,1723790725", "max_major_degree": 3, "signal_node_count": 1, "signal_node_ids": "306594280", "cluster_radius_m": 40.0, "signal_association_radius_m": 60.0, "association_method": "derived:proximity (not asserted by OSM)" }, "geometry": { "type": "Point", "coordinates": [ 77.622100899936939, 12.917049400046425 ] } },
{ "type": "Feature", "properties": { "intersection_id": "X003", "node_count": 6, "osm_node_ids": "10282796509,10282796511,10855370147,1723795924,3805003790,4105324822", "max_major_degree": 5, "signal_node_count": 4, "signal_node_ids": "2971089260,306594280,3805003789,494271080", "cluster_radius_m": 40.0, "signal_association_radius_m": 60.0, "association_method": "derived:proximity (not asserted by OSM)" }, "geometry": { "type": "Point", "coordinates": [ 77.622793799988486, 12.91730480003557 ] } },
{ "type": "Feature", "properties": { "intersection_id": "X004", "node_count": 4, "osm_node_ids": "1472878464,1723790753,5067333236,6130636339", "max_major_degree": 4, "signal_node_count": 0, "signal_node_ids": "", "cluster_radius_m": 40.0, "signal_association_radius_m": 60.0, "association_method": "derived:proximity (not asserted by OSM)" }, "geometry": { "type": "Point", "coordinates": [ 77.622426899929124, 12.917946425084107 ] } },
{ "type": "Feature", "properties": { "intersection_id": "X005", "node_count": 1, "osm_node_ids": "12040966310", "max_major_degree": 3, "signal_node_count": 0, "signal_node_ids": "", "cluster_radius_m": 40.0, "signal_association_radius_m": 60.0, "association_method": "derived:proximity (not asserted by OSM)" }, "geometry": { "type": "Point", "coordinates": [ 77.6214199, 12.918769 ] } },
{ "type": "Feature", "properties": { "intersection_id": "X006", "node_count": 1, "osm_node_ids": "494271084", "max_major_degree": 3, "signal_node_count": 0, "signal_node_ids": "", "cluster_radius_m": 40.0, "signal_association_radius_m": 60.0, "association_method": "derived:proximity (not asserted by OSM)" }, "geometry": { "type": "Point", "coordinates": [ 77.6214053, 12.9194475 ] } },
{ "type": "Feature", "properties": { "intersection_id": "X007", "node_count": 1, "osm_node_ids": "1472248431", "max_major_degree": 3, "signal_node_count": 0, "signal_node_ids": "", "cluster_radius_m": 40.0, "signal_association_radius_m": 60.0, "association_method": "derived:proximity (not asserted by OSM)" }, "geometry": { "type": "Point", "coordinates": [ 77.6210467, 12.9196804 ] } },
{ "type": "Feature", "properties": { "intersection_id": "X008", "node_count": 1, "osm_node_ids": "307409018", "max_major_degree": 3, "signal_node_count": 0, "signal_node_ids": "", "cluster_radius_m": 40.0, "signal_association_radius_m": 60.0, "association_method": "derived:proximity (not asserted by OSM)" }, "geometry": { "type": "Point", "coordinates": [ 77.6174229, 12.9198247 ] } },
{ "type": "Feature", "properties": { "intersection_id": "X009", "node_count": 4, "osm_node_ids": "10282769895,10775075568,11964440742,11964440743", "max_major_degree": 4, "signal_node_count": 3, "signal_node_ids": "10282769898,4703140386,494271106", "cluster_radius_m": 40.0, "signal_association_radius_m": 60.0, "association_method": "derived:proximity (not asserted by OSM)" }, "geometry": { "type": "Point", "coordinates": [ 77.620272625003039, 12.921116500009809 ] } },
{ "type": "Feature", "properties": { "intersection_id": "X010", "node_count": 1, "osm_node_ids": "1472248450", "max_major_degree": 3, "signal_node_count": 0, "signal_node_ids": "", "cluster_radius_m": 40.0, "signal_association_radius_m": 60.0, "association_method": "derived:proximity (not asserted by OSM)" }, "geometry": { "type": "Point", "coordinates": [ 77.6188855, 12.9234501 ] } },
{ "type": "Feature", "properties": { "intersection_id": "X011", "node_count": 1, "osm_node_ids": "1472248447", "max_major_degree": 3, "signal_node_count": 0, "signal_node_ids": "", "cluster_radius_m": 40.0, "signal_association_radius_m": 60.0, "association_method": "derived:proximity (not asserted by OSM)" }, "geometry": { "type": "Point", "coordinates": [ 77.6186023, 12.9237068 ] } },
{ "type": "Feature", "properties": { "intersection_id": "X012", "node_count": 1, "osm_node_ids": "9593357279", "max_major_degree": 3, "signal_node_count": 0, "signal_node_ids": "", "cluster_radius_m": 40.0, "signal_association_radius_m": 60.0, "association_method": "derived:proximity (not asserted by OSM)" }, "geometry": { "type": "Point", "coordinates": [ 77.6255442, 12.9126289 ] } },
{ "type": "Feature", "properties": { "intersection_id": "X013", "node_count": 1, "osm_node_ids": "11664293096", "max_major_degree": 3, "signal_node_count": 0, "signal_node_ids": "", "cluster_radius_m": 40.0, "signal_association_radius_m": 60.0, "association_method": "derived:proximity (not asserted by OSM)" }, "geometry": { "type": "Point", "coordinates": [ 77.6243915, 12.9145188 ] } },
{ "type": "Feature", "properties": { "intersection_id": "X014", "node_count": 1, "osm_node_ids": "13337723223", "max_major_degree": 3, "signal_node_count": 0, "signal_node_ids": "", "cluster_radius_m": 40.0, "signal_association_radius_m": 60.0, "association_method": "derived:proximity (not asserted by OSM)" }, "geometry": { "type": "Point", "coordinates": [ 77.6240088, 12.9146418 ] } },
{ "type": "Feature", "properties": { "intersection_id": "X015", "node_count": 1, "osm_node_ids": "3740373535", "max_major_degree": 3, "signal_node_count": 0, "signal_node_ids": "", "cluster_radius_m": 40.0, "signal_association_radius_m": 60.0, "association_method": "derived:proximity (not asserted by OSM)" }, "geometry": { "type": "Point", "coordinates": [ 77.6234858, 12.9162914 ] } },
{ "type": "Feature", "properties": { "intersection_id": "X016", "node_count": 1, "osm_node_ids": "2509423121", "max_major_degree": 3, "signal_node_count": 1, "signal_node_ids": "3805003789", "cluster_radius_m": 40.0, "signal_association_radius_m": 60.0, "association_method": "derived:proximity (not asserted by OSM)" }, "geometry": { "type": "Point", "coordinates": [ 77.6229543, 12.9165505 ] } },
{ "type": "Feature", "properties": { "intersection_id": "X017", "node_count": 2, "osm_node_ids": "2471287779,2471287780", "max_major_degree": 3, "signal_node_count": 0, "signal_node_ids": "", "cluster_radius_m": 40.0, "signal_association_radius_m": 60.0, "association_method": "derived:proximity (not asserted by OSM)" }, "geometry": { "type": "Point", "coordinates": [ 77.629255749998393, 12.916883800000155 ] } },
{ "type": "Feature", "properties": { "intersection_id": "X018", "node_count": 1, "osm_node_ids": "12822455068", "max_major_degree": 3, "signal_node_count": 0, "signal_node_ids": "", "cluster_radius_m": 40.0, "signal_association_radius_m": 60.0, "association_method": "derived:proximity (not asserted by OSM)" }, "geometry": { "type": "Point", "coordinates": [ 77.6271288, 12.9174072 ] } },
{ "type": "Feature", "properties": { "intersection_id": "X019", "node_count": 1, "osm_node_ids": "306611189", "max_major_degree": 3, "signal_node_count": 0, "signal_node_ids": "", "cluster_radius_m": 40.0, "signal_association_radius_m": 60.0, "association_method": "derived:proximity (not asserted by OSM)" }, "geometry": { "type": "Point", "coordinates": [ 77.6248374, 12.9175235 ] } },
{ "type": "Feature", "properties": { "intersection_id": "X020", "node_count": 3, "osm_node_ids": "11809900885,260911861,308915754", "max_major_degree": 4, "signal_node_count": 3, "signal_node_ids": "12074449291,12074449292,1837005138", "cluster_radius_m": 40.0, "signal_association_radius_m": 60.0, "association_method": "derived:proximity (not asserted by OSM)" }, "geometry": { "type": "Point", "coordinates": [ 77.628832333332241, 12.924190300011455 ] } }
]
}
