{
"type": "FeatureCollection",
"name": "junctions",
"crs": { "type": "name", "properties": { "name": "urn:ogc:def:crs:OGC:1.3:CRS84" } },
"features": [
{ "type": "Feature", "properties": { "osm_node_id": "10282796511", "degree": 4, "major_degree": 4, "is_major": true, "way_ids": "230423164,27555707,464465163,654137560", "lat": 12.9173014, "lon": 77.6225966 }, "geometry": { "type": "Point", "coordinates": [ 77.6225966, 12.9173014 ] } },
{ "type": "Feature", "properties": { "osm_node_id": "10282796509", "degree": 4, "major_degree": 4, "is_major": true, "way_ids": "1167293939,160331538,27555707,380709621", "lat": 12.9173744, "lon": 77.6228281 }, "geometry": { "type": "Point", "coordinates": [ 77.6228281, 12.9173744 ] } },
{ "type": "Feature", "properties": { "osm_node_id": "306611966", "degree": 3, "major_degree": 1, "is_major": false, "way_ids": "27934854,343689124,660103250", "lat": 12.9140978, "lon": 77.6279751 }, "geometry": { "type": "Point", "coordinates": [ 77.6279751, 12.9140978 ] } },
{ "type": "Feature", "properties": { "osm_node_id": "306611415", "degree": 3, "major_degree": 2, "is_major": false, "way_ids": "230402870,27934854,678335364", "lat": 12.9141678, "lon": 77.6269691 }, "geometry": { "type": "Point", "coordinates": [ 77.6269691, 12.9141678 ] } },
{ "type": "Feature", "properties": { "osm_node_id": "306612013", "degree": 3, "major_degree": 0, "is_major": false, "way_ids": "27934968,343689123,343689124", "lat": 12.9145698, "lon": 77.6280676 }, "geometry": { "type": "Point", "coordinates": [ 77.6280676, 12.9145698 ] } },
{ "type": "Feature", "properties": { "osm_node_id": "10081671366", "degree": 3, "major_degree": 0, "is_major": false, "way_ids": "232235457,27936029,627937544", "lat": 12.9152821, "lon": 77.6300368 }, "geometry": { "type": "Point", "coordinates": [ 77.6300368, 12.9152821 ] } },
{ "type": "Feature", "properties": { "osm_node_id": "747660344", "degree": 3, "major_degree": 1, "is_major": false, "way_ids": "27936940,60194989,60194990", "lat": 12.9111783, "lon": 77.6296346 }, "geometry": { "type": "Point", "coordinates": [ 77.6296346, 12.9111783 ] } },
{ "type": "Feature", "properties": { "osm_node_id": "307407844", "degree": 3, "major_degree": 0, "is_major": false, "way_ids": "1528397623,27994428,27994446", "lat": 12.9169618, "lon": 77.620235 }, "geometry": { "type": "Point", "coordinates": [ 77.620235, 12.9169618 ] } },
{ "type": "Feature", "properties": { "osm_node_id": "307408086", "degree": 4, "major_degree": 2, "is_major": false, "way_ids": "1185209421,1185209422,27994428,27994464", "lat": 12.9181687, "lon": 77.6203959 }, "geometry": { "type": "Point", "coordinates": [ 77.6203959, 12.9181687 ] } },
{ "type": "Feature", "properties": { "osm_node_id": "308875485", "degree": 3, "major_degree": 0, "is_major": false, "way_ids": "27994446,28120427,28120431", "lat": 12.9174738, "lon": 77.6180435 }, "geometry": { "type": "Point", "coordinates": [ 77.6180435, 12.9174738 ] } },
{ "type": "Feature", "properties": { "osm_node_id": "494271022", "degree": 3, "major_degree": 0, "is_major": false, "way_ids": "1110221362,1185467340,27994446", "lat": 12.9172709, "lon": 77.6185163 }, "geometry": { "type": "Point", "coordinates": [ 77.6185163, 12.9172709 ] } },
{ "type": "Feature", "properties": { "osm_node_id": "307409022", "degree": 4, "major_degree": 2, "is_major": false, "way_ids": "27994464,28120431,290639912,310665594", "lat": 12.9183451, "lon": 77.6183366 }, "geometry": { "type": "Point", "coordinates": [ 77.6183366, 12.9183451 ] } },
{ "type": "Feature", "properties": { "osm_node_id": "1309736835", "degree": 3, "major_degree": 2, "is_major": false, "way_ids": "1292043921,229976708,28103474", "lat": 12.9154413, "lon": 77.6165199 }, "geometry": { "type": "Point", "coordinates": [ 77.6165199, 12.9154413 ] } },
{ "type": "Feature", "properties": { "osm_node_id": "3161221570", "degree": 4, "major_degree": 2, "is_major": false, "way_ids": "1370859982,1370859983,28120433,310665112", "lat": 12.9194099, "lon": 77.6163044 }, "geometry": { "type": "Point", "coordinates": [ 77.6163044, 12.9194099 ] } },
{ "type": "Feature", "properties": { "osm_node_id": "307409013", "degree": 3, "major_degree": 0, "is_major": false, "way_ids": "243896990,28120456,40696208", "lat": 12.920543, "lon": 77.6161363 }, "geometry": { "type": "Point", "coordinates": [ 77.6161363, 12.920543 ] } },
{ "type": "Feature", "properties": { "osm_node_id": "307408116", "degree": 3, "major_degree": 1, "is_major": false, "way_ids": "1185209422,1381997259,40696199", "lat": 12.9181642, "lon": 77.621852 }, "geometry": { "type": "Point", "coordinates": [ 77.621852, 12.9181642 ] } },
{ "type": "Feature", "properties": { "osm_node_id": "307409018", "degree": 3, "major_degree": 3, "is_major": true, "way_ids": "290639911,290639912,40696200", "lat": 12.9198247, "lon": 77.6174229 }, "geometry": { "type": "Point", "coordinates": [ 77.6174229, 12.9198247 ] } },
{ "type": "Feature", "properties": { "osm_node_id": "6152812151", "degree": 3, "major_degree": 1, "is_major": false, "way_ids": "1109900834,290639912,40696203", "lat": 12.919458, "lon": 77.6178532 }, "geometry": { "type": "Point", "coordinates": [ 77.6178532, 12.919458 ] } },
{ "type": "Feature", "properties": { "osm_node_id": "494271039", "degree": 3, "major_degree": 0, "is_major": false, "way_ids": "1424147361,40696205,688608667", "lat": 12.9188969, "lon": 77.6188327 }, "geometry": { "type": "Point", "coordinates": [ 77.6188327, 12.9188969 ] } },
{ "type": "Feature", "properties": { "osm_node_id": "494271084", "degree": 3, "major_degree": 3, "is_major": true, "way_ids": "1167293940,40696219,40696223", "lat": 12.9194475, "lon": 77.6214053 }, "geometry": { "type": "Point", "coordinates": [ 77.6214053, 12.9194475 ] } },
{ "type": "Feature", "properties": { "osm_node_id": "5965902017", "degree": 3, "major_degree": 2, "is_major": false, "way_ids": "1148717038,1311723765,40696223", "lat": 12.9202307, "lon": 77.6208647 }, "geometry": { "type": "Point", "coordinates": [ 77.6208647, 12.9202307 ] } },
{ "type": "Feature", "properties": { "osm_node_id": "2509423118", "degree": 4, "major_degree": 2, "is_major": false, "way_ids": "1472985949,243553545,49989519,886153775", "lat": 12.9161699, "lon": 77.6199352 }, "geometry": { "type": "Point", "coordinates": [ 77.6199352, 12.9161699 ] } },
{ "type": "Feature", "properties": { "osm_node_id": "6518562603", "degree": 3, "major_degree": 0, "is_major": false, "way_ids": "1446504457,55489682,694302708", "lat": 12.922901, "lon": 77.6196138 }, "geometry": { "type": "Point", "coordinates": [ 77.6196138, 12.922901 ] } },
{ "type": "Feature", "properties": { "osm_node_id": "3161221549", "degree": 3, "major_degree": 0, "is_major": false, "way_ids": "310665108,55489682,995122864", "lat": 12.9229928, "lon": 77.6198128 }, "geometry": { "type": "Point", "coordinates": [ 77.6198128, 12.9229928 ] } },
{ "type": "Feature", "properties": { "osm_node_id": "956032205", "degree": 3, "major_degree": 0, "is_major": false, "way_ids": "310665110,363083979,55489682", "lat": 12.9230905, "lon": 77.6200243 }, "geometry": { "type": "Point", "coordinates": [ 77.6200243, 12.9230905 ] } },
{ "type": "Feature", "properties": { "osm_node_id": "8239947099", "degree": 3, "major_degree": 1, "is_major": false, "way_ids": "1280500777,243553545,59482012", "lat": 12.916048, "lon": 77.6181013 }, "geometry": { "type": "Point", "coordinates": [ 77.6181013, 12.916048 ] } },
{ "type": "Feature", "properties": { "osm_node_id": "737857047", "degree": 3, "major_degree": 1, "is_major": false, "way_ids": "1063933802,229976708,59482082", "lat": 12.9128591, "lon": 77.6189525 }, "geometry": { "type": "Point", "coordinates": [ 77.6189525, 12.9128591 ] } },
{ "type": "Feature", "properties": { "osm_node_id": "2389119100", "degree": 3, "major_degree": 2, "is_major": false, "way_ids": "128220208,60194989,744561215", "lat": 12.9103916, "lon": 77.6271896 }, "geometry": { "type": "Point", "coordinates": [ 77.6271896, 12.9103916 ] } },
{ "type": "Feature", "properties": { "osm_node_id": "2450399422", "degree": 3, "major_degree": 0, "is_major": false, "way_ids": "237089960,237089974,60194990", "lat": 12.9110661, "lon": 77.6305719 }, "geometry": { "type": "Point", "coordinates": [ 77.6305719, 12.9110661 ] } },
{ "type": "Feature", "properties": { "osm_node_id": "752203531", "degree": 5, "major_degree": 2, "is_major": false, "way_ids": "1101675544,1155963377,160556513,60430147,744561214", "lat": 12.9113778, "lon": 77.6259966 }, "geometry": { "type": "Point", "coordinates": [ 77.6259966, 12.9113778 ] } },
{ "type": "Feature", "properties": { "osm_node_id": "260911861", "degree": 5, "major_degree": 4, "is_major": true, "way_ids": "1271765832,1312986513,476886246,631197944,92196679", "lat": 12.9241419, "lon": 77.6288623 }, "geometry": { "type": "Point", "coordinates": [ 77.6288623, 12.9241419 ] } },
{ "type": "Feature", "properties": { "osm_node_id": "1377891982", "degree": 3, "major_degree": 0, "is_major": false, "way_ids": "123629137,133883974,269437513", "lat": 12.9231402, "lon": 77.6304934 }, "geometry": { "type": "Point", "coordinates": [ 77.6304934, 12.9231402 ] } },
{ "type": "Feature", "properties": { "osm_node_id": "6518859318", "degree": 3, "major_degree": 0, "is_major": false, "way_ids": "123629182,694335189,694335191", "lat": 12.9197829, "lon": 77.6281833 }, "geometry": { "type": "Point", "coordinates": [ 77.6281833, 12.9197829 ] } },
{ "type": "Feature", "properties": { "osm_node_id": "12196455086", "degree": 3, "major_degree": 0, "is_major": false, "way_ids": "128220197,1506497135,694981004", "lat": 12.9133136, "lon": 77.6254261 }, "geometry": { "type": "Point", "coordinates": [ 77.6254261, 12.9133136 ] } },
{ "type": "Feature", "properties": { "osm_node_id": "1472248447", "degree": 3, "major_degree": 3, "is_major": true, "way_ids": "133763758,172853384,688824218", "lat": 12.9237068, "lon": 77.6186023 }, "geometry": { "type": "Point", "coordinates": [ 77.6186023, 12.9237068 ] } },
{ "type": "Feature", "properties": { "osm_node_id": "1472248431", "degree": 3, "major_degree": 3, "is_major": true, "way_ids": "133763765,464465164,464465165", "lat": 12.9196804, "lon": 77.6210467 }, "geometry": { "type": "Point", "coordinates": [ 77.6210467, 12.9196804 ] } },
{ "type": "Feature", "properties": { "osm_node_id": "1607769741", "degree": 4, "major_degree": 0, "is_major": false, "way_ids": "147575119,147575122,254053176,383732625", "lat": 12.9236991, "lon": 77.6179374 }, "geometry": { "type": "Point", "coordinates": [ 77.6179374, 12.9236991 ] } },
{ "type": "Feature", "properties": { "osm_node_id": "6521889000", "degree": 3, "major_degree": 0, "is_major": false, "way_ids": "1474602160,147575130,694563704", "lat": 12.9211585, "lon": 77.6199288 }, "geometry": { "type": "Point", "coordinates": [ 77.6199288, 12.9211585 ] } },
{ "type": "Feature", "properties": { "osm_node_id": "1607769768", "degree": 4, "major_degree": 0, "is_major": false, "way_ids": "147575196,254053180,254053182,310665100", "lat": 12.9241189, "lon": 77.6164199 }, "geometry": { "type": "Point", "coordinates": [ 77.6164199, 12.9241189 ] } },
{ "type": "Feature", "properties": { "osm_node_id": "1472248450", "degree": 3, "major_degree": 3, "is_major": true, "way_ids": "148210028,172853382,684917326", "lat": 12.9234501, "lon": 77.6188855 }, "geometry": { "type": "Point", "coordinates": [ 77.6188855, 12.9234501 ] } },
{ "type": "Feature", "properties": { "osm_node_id": "1614298010", "degree": 3, "major_degree": 0, "is_major": false, "way_ids": "1446504457,148323166,148697299", "lat": 12.9225548, "lon": 77.6197827 }, "geometry": { "type": "Point", "coordinates": [ 77.6197827, 12.9225548 ] } },
{ "type": "Feature", "properties": { "osm_node_id": "1723790725", "degree": 3, "major_degree": 3, "is_major": true, "way_ids": "160330784,464465163,559801783", "lat": 12.9171705, "lon": 77.6222334 }, "geometry": { "type": "Point", "coordinates": [ 77.6222334, 12.9171705 ] } },
{ "type": "Feature", "properties": { "osm_node_id": "1723790753", "degree": 3, "major_degree": 3, "is_major": true, "way_ids": "1090570620,160330784,230423164", "lat": 12.9176923, "lon": 77.6223472 }, "geometry": { "type": "Point", "coordinates": [ 77.6223472, 12.9176923 ] } },
{ "type": "Feature", "properties": { "osm_node_id": "1472878464", "degree": 4, "major_degree": 4, "is_major": true, "way_ids": "1124477399,1393438377,160331538,654233027", "lat": 12.9180682, "lon": 77.6224461 }, "geometry": { "type": "Point", "coordinates": [ 77.6224461, 12.9180682 ] } },
{ "type": "Feature", "properties": { "osm_node_id": "10282769905", "degree": 3, "major_degree": 2, "is_major": false, "way_ids": "1090570621,1393438377,160331539", "lat": 12.918108, "lon": 77.622508 }, "geometry": { "type": "Point", "coordinates": [ 77.622508, 12.918108 ] } },
{ "type": "Feature", "properties": { "osm_node_id": "9968184749", "degree": 3, "major_degree": 2, "is_major": false, "way_ids": "1087955058,1090570628,160331539", "lat": 12.9177011, "lon": 77.6236376 }, "geometry": { "type": "Point", "coordinates": [ 77.6236376, 12.9177011 ] } },
{ "type": "Feature", "properties": { "osm_node_id": "13337723223", "degree": 3, "major_degree": 3, "is_major": true, "way_ids": "1454345481,160556513,380707240", "lat": 12.9146418, "lon": 77.6240088 }, "geometry": { "type": "Point", "coordinates": [ 77.6240088, 12.9146418 ] } },
{ "type": "Feature", "properties": { "osm_node_id": "737856755", "degree": 3, "major_degree": 0, "is_major": false, "way_ids": "1427485004,164040895,169075391", "lat": 12.9154086, "lon": 77.6215262 }, "geometry": { "type": "Point", "coordinates": [ 77.6215262, 12.9154086 ] } },
{ "type": "Feature", "properties": { "osm_node_id": "11964440742", "degree": 4, "major_degree": 4, "is_major": true, "way_ids": "1109968033,172853382,239438610,476885790", "lat": 12.9212099, "lon": 77.6202961 }, "geometry": { "type": "Point", "coordinates": [ 77.6202961, 12.9212099 ] } },
{ "type": "Feature", "properties": { "osm_node_id": "6521888756", "degree": 3, "major_degree": 1, "is_major": false, "way_ids": "229976708,694563674,886485938", "lat": 12.9127883, "lon": 77.6217455 }, "geometry": { "type": "Point", "coordinates": [ 77.6217455, 12.9127883 ] } },
{ "type": "Feature", "properties": { "osm_node_id": "1417443741", "degree": 3, "major_degree": 0, "is_major": false, "way_ids": "1215278306,230402870,544999264", "lat": 12.9137291, "lon": 77.6268249 }, "geometry": { "type": "Point", "coordinates": [ 77.6268249, 12.9137291 ] } },
{ "type": "Feature", "properties": { "osm_node_id": "11664293096", "degree": 3, "major_degree": 3, "is_major": true, "way_ids": "1301808819,1416769967,237025636", "lat": 12.9145188, "lon": 77.6243915 }, "geometry": { "type": "Point", "coordinates": [ 77.6243915, 12.9145188 ] } },
{ "type": "Feature", "properties": { "osm_node_id": "306613125", "degree": 3, "major_degree": 0, "is_major": false, "way_ids": "1066405076,1315245393,237089962", "lat": 12.9118283, "lon": 77.6296669 }, "geometry": { "type": "Point", "coordinates": [ 77.6296669, 12.9118283 ] } },
{ "type": "Feature", "properties": { "osm_node_id": "2471287779", "degree": 3, "major_degree": 3, "is_major": true, "way_ids": "1421955576,239333571,610166539", "lat": 12.9169435, "lon": 77.6292565 }, "geometry": { "type": "Point", "coordinates": [ 77.6292565, 12.9169435 ] } },
{ "type": "Feature", "properties": { "osm_node_id": "2471287780", "degree": 3, "major_degree": 3, "is_major": true, "way_ids": "1421955575,1534247766,239333571", "lat": 12.9168241, "lon": 77.629255 }, "geometry": { "type": "Point", "coordinates": [ 77.629255, 12.9168241 ] } },
{ "type": "Feature", "properties": { "osm_node_id": "11809900885", "degree": 4, "major_degree": 4, "is_major": true, "way_ids": "1271765831,1271765832,1411121774,239438610", "lat": 12.9241909, "lon": 77.6287288 }, "geometry": { "type": "Point", "coordinates": [ 77.6287288, 12.9241909 ] } },
{ "type": "Feature", "properties": { "osm_node_id": "2509423116", "degree": 3, "major_degree": 1, "is_major": false, "way_ids": "243553545,243553548,886153774", "lat": 12.9160516, "lon": 77.6186148 }, "geometry": { "type": "Point", "coordinates": [ 77.6186148, 12.9160516 ] } },
{ "type": "Feature", "properties": { "osm_node_id": "494271028", "degree": 3, "major_degree": 2, "is_major": false, "way_ids": "243554072,694563705,694563706", "lat": 12.9221825, "lon": 77.6192304 }, "geometry": { "type": "Point", "coordinates": [ 77.6192304, 12.9221825 ] } },
{ "type": "Feature", "properties": { "osm_node_id": "2406851448", "degree": 3, "major_degree": 2, "is_major": false, "way_ids": "1166289667,243896990,290639911", "lat": 12.9198761, "lon": 77.6173072 }, "geometry": { "type": "Point", "coordinates": [ 77.6173072, 12.9198761 ] } },
{ "type": "Feature", "properties": { "osm_node_id": "9593357279", "degree": 3, "major_degree": 3, "is_major": true, "way_ids": "1042112410,1196514116,243897293", "lat": 12.9126289, "lon": 77.6255442 }, "geometry": { "type": "Point", "coordinates": [ 77.6255442, 12.9126289 ] } },
{ "type": "Feature", "properties": { "osm_node_id": "2509423121", "degree": 3, "major_degree": 3, "is_major": true, "way_ids": "1303068639,245809758,377132617", "lat": 12.9165505, "lon": 77.6229543 }, "geometry": { "type": "Point", "coordinates": [ 77.6229543, 12.9165505 ] } },
{ "type": "Feature", "properties": { "osm_node_id": "1123386062", "degree": 3, "major_degree": 3, "is_major": true, "way_ids": "1108993651,245809758,312174028", "lat": 12.9169283, "lon": 77.6219684 }, "geometry": { "type": "Point", "coordinates": [ 77.6219684, 12.9169283 ] } },
{ "type": "Feature", "properties": { "osm_node_id": "2598853054", "degree": 3, "major_degree": 0, "is_major": false, "way_ids": "254053172,254053174,254053176", "lat": 12.9235569, "lon": 77.6176139 }, "geometry": { "type": "Point", "coordinates": [ 77.6176139, 12.9235569 ] } },
{ "type": "Feature", "properties": { "osm_node_id": "2598853071", "degree": 4, "major_degree": 0, "is_major": false, "way_ids": "254053185,254053187,559785241,559785242", "lat": 12.9242933, "lon": 77.6179435 }, "geometry": { "type": "Point", "coordinates": [ 77.6179435, 12.9242933 ] } },
{ "type": "Feature", "properties": { "osm_node_id": "306611195", "degree": 4, "major_degree": 2, "is_major": false, "way_ids": "1384907602,1534247773,1535813445,256259311", "lat": 12.9166108, "lon": 77.6292106 }, "geometry": { "type": "Point", "coordinates": [ 77.6292106, 12.9166108 ] } },
{ "type": "Feature", "properties": { "osm_node_id": "306611189", "degree": 3, "major_degree": 3, "is_major": true, "way_ids": "1226665350,1305577667,256259311", "lat": 12.9175235, "lon": 77.6248374 }, "geometry": { "type": "Point", "coordinates": [ 77.6248374, 12.9175235 ] } },
{ "type": "Feature", "properties": { "osm_node_id": "3352564078", "degree": 3, "major_degree": 0, "is_major": false, "way_ids": "1427479668,310665109,363083979", "lat": 12.9242435, "lon": 77.6209691 }, "geometry": { "type": "Point", "coordinates": [ 77.6209691, 12.9242435 ] } },
{ "type": "Feature", "properties": { "osm_node_id": "3161255814", "degree": 4, "major_degree": 0, "is_major": false, "way_ids": "1230516167,310667986,694563672,799565063", "lat": 12.9100058, "lon": 77.6217711 }, "geometry": { "type": "Point", "coordinates": [ 77.6217711, 12.9100058 ] } },
{ "type": "Feature", "properties": { "osm_node_id": "9797838896", "degree": 3, "major_degree": 2, "is_major": false, "way_ids": "1155963376,1155963377,312063814", "lat": 12.9114595, "lon": 77.6261198 }, "geometry": { "type": "Point", "coordinates": [ 77.6261198, 12.9114595 ] } },
{ "type": "Feature", "properties": { "osm_node_id": "1723795924", "degree": 3, "major_degree": 3, "is_major": true, "way_ids": "1167293938,312174028,654137560", "lat": 12.9172126, "lon": 77.6226574 }, "geometry": { "type": "Point", "coordinates": [ 77.6226574, 12.9172126 ] } },
{ "type": "Feature", "properties": { "osm_node_id": "306611889", "degree": 3, "major_degree": 2, "is_major": false, "way_ids": "322022988,678335364,799578796", "lat": 12.9172556, "lon": 77.6249821 }, "geometry": { "type": "Point", "coordinates": [ 77.6249821, 12.9172556 ] } },
{ "type": "Feature", "properties": { "osm_node_id": "308915754", "degree": 3, "major_degree": 3, "is_major": true, "way_ids": "1311812959,350096404,476886246", "lat": 12.9242381, "lon": 77.6289059 }, "geometry": { "type": "Point", "coordinates": [ 77.6289059, 12.9242381 ] } },
{ "type": "Feature", "properties": { "osm_node_id": "3740373535", "degree": 3, "major_degree": 3, "is_major": true, "way_ids": "1109948700,370328586,377124830", "lat": 12.9162914, "lon": 77.6234858 }, "geometry": { "type": "Point", "coordinates": [ 77.6234858, 12.9162914 ] } },
{ "type": "Feature", "properties": { "osm_node_id": "1617747730", "degree": 3, "major_degree": 2, "is_major": false, "way_ids": "1313234776,1454345481,377132617", "lat": 12.9147233, "lon": 77.6239622 }, "geometry": { "type": "Point", "coordinates": [ 77.6239622, 12.9147233 ] } },
{ "type": "Feature", "properties": { "osm_node_id": "3805003790", "degree": 3, "major_degree": 3, "is_major": true, "way_ids": "1073384217,1109948513,380709621", "lat": 12.9173954, "lon": 77.6229259 }, "geometry": { "type": "Point", "coordinates": [ 77.6229259, 12.9173954 ] } },
{ "type": "Feature", "properties": { "osm_node_id": "6518562612", "degree": 3, "major_degree": 1, "is_major": false, "way_ids": "1281357396,1516931686,457214835", "lat": 12.9243803, "lon": 77.6298229 }, "geometry": { "type": "Point", "coordinates": [ 77.6298229, 12.9243803 ] } },
{ "type": "Feature", "properties": { "osm_node_id": "6130636339", "degree": 3, "major_degree": 3, "is_major": true, "way_ids": "1090570620,1321561536,464465164", "lat": 12.9179206, "lon": 77.622197 }, "geometry": { "type": "Point", "coordinates": [ 77.622197, 12.9179206 ] } },
{ "type": "Feature", "properties": { "osm_node_id": "10775075568", "degree": 3, "major_degree": 3, "is_major": true, "way_ids": "1331247892,1362809474,464465165", "lat": 12.9210144, "lon": 77.6202471 }, "geometry": { "type": "Point", "coordinates": [ 77.6202471, 12.9210144 ] } },
{ "type": "Feature", "properties": { "osm_node_id": "11964440743", "degree": 3, "major_degree": 3, "is_major": true, "way_ids": "1331247892,1453814098,476885790", "lat": 12.9211609, "lon": 77.6201733 }, "geometry": { "type": "Point", "coordinates": [ 77.6201733, 12.9211609 ] } },
{ "type": "Feature", "properties": { "osm_node_id": "9910908314", "degree": 3, "major_degree": 2, "is_major": false, "way_ids": "1106333599,1167293937,491889864", "lat": 12.9161423, "lon": 77.6168465 }, "geometry": { "type": "Point", "coordinates": [ 77.6168465, 12.9161423 ] } },
{ "type": "Feature", "properties": { "osm_node_id": "6518859300", "degree": 3, "major_degree": 2, "is_major": false, "way_ids": "1109914039,491889865,694335188", "lat": 12.9163528, "lon": 77.6163047 }, "geometry": { "type": "Point", "coordinates": [ 77.6163047, 12.9163528 ] } },
{ "type": "Feature", "properties": { "osm_node_id": "307407783", "degree": 4, "major_degree": 3, "is_major": true, "way_ids": "1103401541,1301808820,1528397623,491889865", "lat": 12.9165508, "lon": 77.6201826 }, "geometry": { "type": "Point", "coordinates": [ 77.6201826, 12.9165508 ] } },
{ "type": "Feature", "properties": { "osm_node_id": "12040966310", "degree": 3, "major_degree": 3, "is_major": true, "way_ids": "1299917514,1299932382,519734960", "lat": 12.918769, "lon": 77.6214199 }, "geometry": { "type": "Point", "coordinates": [ 77.6214199, 12.918769 ] } },
{ "type": "Feature", "properties": { "osm_node_id": "5067333236", "degree": 3, "major_degree": 3, "is_major": true, "way_ids": "1299917512,1299917517,519734960", "lat": 12.9181046, "lon": 77.6227173 }, "geometry": { "type": "Point", "coordinates": [ 77.6227173, 12.9181046 ] } },
{ "type": "Feature", "properties": { "osm_node_id": "4105324822", "degree": 5, "major_degree": 5, "is_major": true, "way_ids": "1109948513,1109948700,1109948890,1453821325,610101763", "lat": 12.9172887, "lon": 77.6229515 }, "geometry": { "type": "Point", "coordinates": [ 77.6229515, 12.9172887 ] } },
{ "type": "Feature", "properties": { "osm_node_id": "10855370147", "degree": 3, "major_degree": 3, "is_major": true, "way_ids": "1167293938,1167293939,610101763", "lat": 12.9172563, "lon": 77.6228033 }, "geometry": { "type": "Point", "coordinates": [ 77.6228033, 12.9172563 ] } },
{ "type": "Feature", "properties": { "osm_node_id": "6137767347", "degree": 3, "major_degree": 0, "is_major": false, "way_ids": "655062379,655062381,655062383", "lat": 12.9241763, "lon": 77.6269478 }, "geometry": { "type": "Point", "coordinates": [ 77.6269478, 12.9241763 ] } },
{ "type": "Feature", "properties": { "osm_node_id": "1472878457", "degree": 3, "major_degree": 2, "is_major": false, "way_ids": "1090570628,1384907601,656181226", "lat": 12.9178281, "lon": 77.624375 }, "geometry": { "type": "Point", "coordinates": [ 77.624375, 12.9178281 ] } },
{ "type": "Feature", "properties": { "osm_node_id": "6196977039", "degree": 3, "major_degree": 2, "is_major": false, "way_ids": "1042112410,661917532,744561216", "lat": 12.9126626, "lon": 77.6256544 }, "geometry": { "type": "Point", "coordinates": [ 77.6256544, 12.9126626 ] } },
{ "type": "Feature", "properties": { "osm_node_id": "1607769588", "degree": 3, "major_degree": 2, "is_major": false, "way_ids": "1453814098,1474602160,688824218", "lat": 12.9212668, "lon": 77.6201122 }, "geometry": { "type": "Point", "coordinates": [ 77.6201122, 12.9212668 ] } },
{ "type": "Feature", "properties": { "osm_node_id": "6505307822", "degree": 3, "major_degree": 0, "is_major": false, "way_ids": "1331889739,692909359,694302725", "lat": 12.9180295, "lon": 77.6173292 }, "geometry": { "type": "Point", "coordinates": [ 77.6173292, 12.9180295 ] } },
{ "type": "Feature", "properties": { "osm_node_id": "12196455091", "degree": 3, "major_degree": 0, "is_major": false, "way_ids": "1317814028,1504852719,694981004", "lat": 12.9133075, "lon": 77.6256121 }, "geometry": { "type": "Point", "coordinates": [ 77.6256121, 12.9133075 ] } },
{ "type": "Feature", "properties": { "osm_node_id": "6975606241", "degree": 3, "major_degree": 0, "is_major": false, "way_ids": "1311723763,1311723766,745186524", "lat": 12.9205256, "lon": 77.6214579 }, "geometry": { "type": "Point", "coordinates": [ 77.6214579, 12.9205256 ] } },
{ "type": "Feature", "properties": { "osm_node_id": "7478002977", "degree": 3, "major_degree": 0, "is_major": false, "way_ids": "1165663724,1185468746,799569566", "lat": 12.9151423, "lon": 77.6230025 }, "geometry": { "type": "Point", "coordinates": [ 77.6230025, 12.9151423 ] } },
{ "type": "Feature", "properties": { "osm_node_id": "7479071348", "degree": 3, "major_degree": 0, "is_major": false, "way_ids": "1102833426,1102833427,799715255", "lat": 12.922132, "lon": 77.6184996 }, "geometry": { "type": "Point", "coordinates": [ 77.6184996, 12.922132 ] } },
{ "type": "Feature", "properties": { "osm_node_id": "12969313169", "degree": 3, "major_degree": 3, "is_major": true, "way_ids": "1351994264,1422778330,886153773", "lat": 12.9162035, "lon": 77.6188701 }, "geometry": { "type": "Point", "coordinates": [ 77.6188701, 12.9162035 ] } },
{ "type": "Feature", "properties": { "osm_node_id": "494271091", "degree": 3, "major_degree": 3, "is_major": true, "way_ids": "1108993653,1351994265,886153775", "lat": 12.9163133, "lon": 77.6199358 }, "geometry": { "type": "Point", "coordinates": [ 77.6199358, 12.9163133 ] } },
{ "type": "Feature", "properties": { "osm_node_id": "8243049246", "degree": 3, "major_degree": 0, "is_major": false, "way_ids": "1109599640,1109599641,886485942", "lat": 12.9154882, "lon": 77.6167424 }, "geometry": { "type": "Point", "coordinates": [ 77.6167424, 12.9154882 ] } },
{ "type": "Feature", "properties": { "osm_node_id": "9853869172", "degree": 4, "major_degree": 0, "is_major": false, "way_ids": "1074282737,1090570621,1090570625,1090570627", "lat": 12.918321, "lon": 77.6228191 }, "geometry": { "type": "Point", "coordinates": [ 77.6228191, 12.918321 ] } },
{ "type": "Feature", "properties": { "osm_node_id": "9853869169", "degree": 3, "major_degree": 0, "is_major": false, "way_ids": "1074282737,1090570624,1090570626", "lat": 12.9180105, "lon": 77.6236427 }, "geometry": { "type": "Point", "coordinates": [ 77.6236427, 12.9180105 ] } },
{ "type": "Feature", "properties": { "osm_node_id": "9853869170", "degree": 3, "major_degree": 0, "is_major": false, "way_ids": "1087955058,1090570622,1090570626", "lat": 12.9178953, "lon": 77.623599 }, "geometry": { "type": "Point", "coordinates": [ 77.623599, 12.9178953 ] } },
{ "type": "Feature", "properties": { "osm_node_id": "13633949211", "degree": 3, "major_degree": 0, "is_major": false, "way_ids": "1101690293,1487215387,1487215388", "lat": 12.9120655, "lon": 77.6268065 }, "geometry": { "type": "Point", "coordinates": [ 77.6268065, 12.9120655 ] } },
{ "type": "Feature", "properties": { "osm_node_id": "10081538827", "degree": 3, "major_degree": 2, "is_major": false, "way_ids": "1103401542,1108993651,1108993653", "lat": 12.9167765, "lon": 77.6215184 }, "geometry": { "type": "Point", "coordinates": [ 77.6215184, 12.9167765 ] } },
{ "type": "Feature", "properties": { "osm_node_id": "10123822806", "degree": 3, "major_degree": 0, "is_major": false, "way_ids": "1106333599,1486849578,1486849579", "lat": 12.9160806, "lon": 77.6159838 }, "geometry": { "type": "Point", "coordinates": [ 77.6159838, 12.9160806 ] } },
{ "type": "Feature", "properties": { "osm_node_id": "10123822807", "degree": 3, "major_degree": 2, "is_major": false, "way_ids": "1106333599,1167293936,1167293937", "lat": 12.9162356, "lon": 77.6158912 }, "geometry": { "type": "Point", "coordinates": [ 77.6158912, 12.9162356 ] } },
{ "type": "Feature", "properties": { "osm_node_id": "10151247916", "degree": 3, "major_degree": 0, "is_major": false, "way_ids": "1109599638,1109599640,1331889740", "lat": 12.9154279, "lon": 77.6167097 }, "geometry": { "type": "Point", "coordinates": [ 77.6167097, 12.9154279 ] } },
{ "type": "Feature", "properties": { "osm_node_id": "10151254219", "degree": 3, "major_degree": 0, "is_major": false, "way_ids": "1109599639,1109599641,1109599648", "lat": 12.9156026, "lon": 77.6168215 }, "geometry": { "type": "Point", "coordinates": [ 77.6168215, 12.9156026 ] } },
{ "type": "Feature", "properties": { "osm_node_id": "10151254221", "degree": 3, "major_degree": 0, "is_major": false, "way_ids": "1109599642,1109599643,1109599644", "lat": 12.9158107, "lon": 77.6174834 }, "geometry": { "type": "Point", "coordinates": [ 77.6174834, 12.9158107 ] } },
{ "type": "Feature", "properties": { "osm_node_id": "10151254223", "degree": 3, "major_degree": 0, "is_major": false, "way_ids": "1109599644,1109599646,1109599647", "lat": 12.9156857, "lon": 77.6174377 }, "geometry": { "type": "Point", "coordinates": [ 77.6174377, 12.9156857 ] } },
{ "type": "Feature", "properties": { "osm_node_id": "10151254226", "degree": 3, "major_degree": 0, "is_major": false, "way_ids": "1109599645,1109599647,1118275525", "lat": 12.9155506, "lon": 77.6173886 }, "geometry": { "type": "Point", "coordinates": [ 77.6173886, 12.9155506 ] } },
{ "type": "Feature", "properties": { "osm_node_id": "10151254227", "degree": 3, "major_degree": 0, "is_major": false, "way_ids": "1109599645,1109599648,1109599649", "lat": 12.915706, "lon": 77.6168779 }, "geometry": { "type": "Point", "coordinates": [ 77.6168779, 12.915706 ] } },
{ "type": "Feature", "properties": { "osm_node_id": "10151254228", "degree": 3, "major_degree": 0, "is_major": false, "way_ids": "1109599646,1109599649,1109599650", "lat": 12.9158314, "lon": 77.6169465 }, "geometry": { "type": "Point", "coordinates": [ 77.6169465, 12.9158314 ] } },
{ "type": "Feature", "properties": { "osm_node_id": "10153737446", "degree": 3, "major_degree": 2, "is_major": false, "way_ids": "1109900439,1166289667,1370859983", "lat": 12.9193669, "lon": 77.6171072 }, "geometry": { "type": "Point", "coordinates": [ 77.6171072, 12.9193669 ] } },
{ "type": "Feature", "properties": { "osm_node_id": "10282769895", "degree": 4, "major_degree": 4, "is_major": true, "way_ids": "1109968033,1148717038,1362809474,1393474724", "lat": 12.9210808, "lon": 77.620374 }, "geometry": { "type": "Point", "coordinates": [ 77.620374, 12.9210808 ] } },
{ "type": "Feature", "properties": { "osm_node_id": "6862704163", "degree": 3, "major_degree": 0, "is_major": false, "way_ids": "1185469197,1317811395,1531217815", "lat": 12.9148822, "lon": 77.6244988 }, "geometry": { "type": "Point", "coordinates": [ 77.6244988, 12.9148822 ] } },
{ "type": "Feature", "properties": { "osm_node_id": "13629738621", "degree": 3, "major_degree": 0, "is_major": false, "way_ids": "1294934453,1486849578,1486849579", "lat": 12.9152293, "lon": 77.615861 }, "geometry": { "type": "Point", "coordinates": [ 77.615861, 12.9152293 ] } },
{ "type": "Feature", "properties": { "osm_node_id": "12145386615", "degree": 3, "major_degree": 0, "is_major": false, "way_ids": "1312146827,1312146829,1312146830", "lat": 12.9114124, "lon": 77.6257083 }, "geometry": { "type": "Point", "coordinates": [ 77.6257083, 12.9114124 ] } },
{ "type": "Feature", "properties": { "osm_node_id": "12145386616", "degree": 3, "major_degree": 0, "is_major": false, "way_ids": "1312146827,1312146828,1312146829", "lat": 12.911701, "lon": 77.6256298 }, "geometry": { "type": "Point", "coordinates": [ 77.6256298, 12.911701 ] } },
{ "type": "Feature", "properties": { "osm_node_id": "12822455068", "degree": 3, "major_degree": 3, "is_major": true, "way_ids": "1314562830,1384907601,1421955576", "lat": 12.9174072, "lon": 77.6271288 }, "geometry": { "type": "Point", "coordinates": [ 77.6271288, 12.9174072 ] } },
{ "type": "Feature", "properties": { "osm_node_id": "12196455100", "degree": 3, "major_degree": 0, "is_major": false, "way_ids": "1317814028,1414001560,1504852720", "lat": 12.9131305, "lon": 77.6255832 }, "geometry": { "type": "Point", "coordinates": [ 77.6255832, 12.9131305 ] } }
]
}
